[{"OBJECT_NAME":"STARLINK-3906","OBJECT_ID":"2022-051BB","EPOCH":"2026-03-09T12:38:53.218176","MEAN_MOTION":15.08836817,"ECCENTRICITY":0.00014948,"INCLINATION":53.2175,"RA_OF_ASC_NODE":119.8095,"ARG_OF_PERICENTER":72.8815,"MEAN_ANOMALY":287.2341,"EPHEMERIS_TYPE":0,"CLASSIFICATION_TYPE":"U","NORAD_CAT_ID":52585,"ELEMENT_SET_NO":999,"REV_AT_EPOCH":21156,"BSTAR":3.6390611e-5,"MEAN_MOTION_DOT":2.91e-6,"MEAN_MOTION_DDOT":0},{"OBJECT_NAME":"CZ-4B DEB","OBJECT_ID":"2008-053G","EPOCH":"2026-03-08T12:59:24.951264","MEAN_MOTION":14.89391484,"ECCENTRICITY":0.01030319,"INCLINATION":97.6151,"RA_OF_ASC_NODE":98.188,"ARG_OF_PERICENTER":41.7816,"MEAN_ANOMALY":319.121,"EPHEMERIS_TYPE":0,"CLASSIFICATION_TYPE":"U","NORAD_CAT_ID":35571,"ELEMENT_SET_NO":999,"REV_AT_EPOCH":91755,"BSTAR":0.0016985241,"MEAN_MOTION_DOT":0.00017804,"MEAN_MOTION_DDOT":0}]
